GLOBALSTAR M057         
1 25943U 99058A   24133.50237888 -.00000019  00000+0  67336-3 0  9996
2 25943  52.0010  45.3026 0001726 277.2127  82.8527 12.24787305117838
GLOBALSTAR M059         
1 25944U 99058B   24133.61686743 -.00000029  00000+0  70827-3 0  9997
2 25944  52.0004 210.8274 0000692 200.1617 308.6222 11.99961229114700
GLOBALSTAR M056         
1 25945U 99058C   24133.54565142 -.00000107  00000+0 -22510-3 0  9993
2 25945  51.9958 223.2689 0001290 117.5524 344.5765 12.04775712114380
GLOBALSTAR M031         
1 25946U 99058D   24133.27779863 -.00000186  00000+0 -96513-3 0  9992
2 25946  51.9931 140.3199 0001390  83.7663 290.1559 12.16007896115771
GLOBALSTAR M039         
1 25961U 99062A   24133.50783388 -.00000018  00000+0  47779-3 0  9990
2 25961  51.9866  49.0690 0002479 166.2080 193.8855 12.62290499129615
GLOBALSTAR M034         
1 25962U 99062B   24133.86074309 -.00000041  00000+0  62867-3 0  9997
2 25962  51.9889 331.9875 0014039   8.8021  92.7596 11.79429007 91130
GLOBALSTAR M029         
1 25963U 99062C   24133.23444405 -.00000075  00000+0  13547-3 0  9995
2 25963  51.9787 100.2394 0002830  46.5510 327.9407 11.99877734120996
GLOBALSTAR M061         
1 25964U 99062D   24133.82272231 -.00000070  00000+0  16360-3 0  9998
2 25964  51.9758 150.8143 0006205 291.6107 239.9746 11.76762220 74335
